COMMENT,ORIGINATOR,NORAD_CAT_ID,OBJECT_NAME,OBJECT_TYPE,CLASSIFICATION_TYPE,INTLDES,EPOCH,EPOCH_MICROSECONDS,MEAN_MOTION,ECCENTRICITY,INCLINATION,RA_OF_ASC_NODE,ARG_OF_PERICENTER,MEAN_ANOMALY,EPHEMERIS_TYPE,ELEMENT_SET_NO,REV_AT_EPOCH,BSTAR,MEAN_MOTION_DOT,MEAN_MOTION_DDOT,FILE,TLE_LINE0,TLE_LINE1,TLE_LINE2,OBJECT_ID,OBJECT_NUMBER,SEMIMAJOR_AXIS,PERIOD,APOGEE,PERIGEE
"GENERATED VIA SPACETRACK.ORG API","JSPOC","11309","SL-8 R/B","ROCKET BODY","U","79026B","2016-01-13 15:46:39","709920","13.77058062","0.0020543","82.9688","51.4159","102.6731","257.6724","0","999","84826","8.4401e-05","9.9e-07","0","1980270","0 SL-8 R/B","1 11309U 79026B   16013.65740405 +.00000099 +00000-0 +84401-4 0  9999","2 11309 082.9688 051.4159 0020543 102.6731 257.6724 13.77058062848266","1979-026B","11309","7352.476","104.570","989.446","959.237"
"GENERATED VIA SPACETRACK.ORG API","JSPOC","2757","ESSA 5","PAYLOAD","U","67036A","2016-01-13 15:46:41","89728","12.68494424","0.0043089","101.9821","35.4073","200.6898","305.8579","0","999","25619","-5.194e-05","-5.9e-07","0","1980270","0 ESSA 5","1  2757U 67036A   16013.65742002 -.00000059 +00000-0 -51940-4 0  9999","2  2757 101.9821 035.4073 0043089 200.6898 305.8579 12.68494424256198","1967-036A","2757","7766.216","113.520","1421.544","1354.617"
"GENERATED VIA SPACETRACK.ORG API","JSPOC","21196","MOLNIYA 3-40","PAYLOAD","U","91022A","2016-01-13 15:46:57","919584","2.03026559","0.7149549","63.098","236.3678","290.8844","10.1472","0","999","18205","-0.0095303","-7.1e-06","0","1980270","0 MOLNIYA 3-40","1 21196U 91022A   16013.65761481 -.00000710 +00000-0 -95303-2 0  9994","2 21196 063.0980 236.3678 7149549 290.8844 010.1472 02.03026559182059","1991-022A","21196","26345.105","709.266","38802.532","1131.408"
"GENERATED VIA SPACETRACK.ORG API","JSPOC","397","TIROS 6","PAYLOAD","U","62047A","2016-01-13 15:47:20","427648","14.87868096","0.0005271","58.3064","64.9483","358.783","1.3201","0","999","84496","6.3157e-05","3.68e-06","0","1980270","0 TIROS 6","1   397U 62047A   16013.65787532 +.00000368 +00000-0 +63157-4 0  9995","2   397 058.3064 064.9483 0005271 358.7830 001.3201 14.87868096844965","1962-047A","397","6982.734","96.782","608.280","600.919"
"GENERATED VIA SPACETRACK.ORG API","JSPOC","6192","COSMOS 520","PAYLOAD","U","72072A","2016-01-13 15:47:22","833024","2.01316022","0.486654","72.9037","355.2776","311.7993","315.068","0","999","31852","0","-4e-07","0","1980270","0 COSMOS 520","1  6192U 72072A   16013.65790316 -.00000040 +00000-0 +00000-0 0  9999","2  6192 072.9037 355.2776 4866540 311.7993 315.0680 02.01316022318528","1972-072A","6192","26494.127","715.293","33009.464","7222.519"
"GENERATED VIA SPACETRACK.ORG API","JSPOC","35943","COMSATBW-1","PAYLOAD","U","09054B","2016-01-13 15:47:26","954304","1.00276909","0.0002562","0.0398","59.093","243.0227","110.3436","0","999","2308","0","2e-07","0","1979884","0 COMSATBW-1","1 35943U 09054B   16013.65795086  .00000020  00000-0  00000+0 0  9990","2 35943   0.0398  59.0930 0002562 243.0227 110.3436  1.00276909 23082","2009-054B","35943","42163.295","1436.023","35795.962","35774.358"
"GENERATED VIA SPACETRACK.ORG API","JSPOC","33111","SL-12 R/B(2)","ROCKET BODY","U","08033D","2016-01-13 15:47:26","954304","1.00296524","0.0032703","3.7169","58.4991","243.711","110.6822","0","999","2762","0","7e-08","0","1980270","0 SL-12 R/B(2)","1 33111U 08033D   16013.65795086 +.00000007 +00000-0 +00000-0 0  9997","2 33111 003.7169 058.4991 0032703 243.7110 110.6822 01.00296524027622","2008-033D","33111","42157.798","1435.742","35917.531","35641.794"
"GENERATED VIA SPACETRACK.ORG API","JSPOC","37238","INTELSAT 17","PAYLOAD","U","10065B","2016-01-13 15:47:52","954656","1.00271065","0.0002925","0.0423","265.7832","30.1325","119.6021","0","999","1874","0","-5e-08","0","1979953","0 INTELSAT 17","1 37238U 10065B   16013.65825179 -.00000005  00000-0  00000+0 0  9994","2 37238   0.0423 265.7832 0002925  30.1325 119.6021  1.00271065 18741","2010-065B","37238","42164.933","1436.107","35799.132","35774.465"
"GENERATED VIA SPACETRACK.ORG API","JSPOC","27513","INTELSAT 906","PAYLOAD","U","02041A","2016-01-13 15:47:52","954656","1.00271897","0.0003294","0.0117","321.6721","331.7419","120.2541","0","999","4885","0","1.1e-07","0","1980270","0 INTELSAT 906","1 27513U 02041A   16013.65825179 +.00000011 +00000-0 +00000-0 0  9991","2 27513 000.0117 321.6721 0003294 331.7419 120.2541 01.00271897048852","2002-041A","27513","42164.700","1436.095","35800.454","35772.676"
"GENERATED VIA SPACETRACK.ORG API","JSPOC","29237","BLOCK DM-SL R/B","ROCKET BODY","U","06023B","2016-01-13 15:47:55","136256","2.15886346","0.6607529","0.8488","358.1187","173.4743","5.034","0","999","7550","0","-6.8e-07","0","1979902","0 BLOCK DM-SL R/B","1 29237U 06023B   16013.65827704 -.00000068  00000-0  00000+0 0  9998","2 29237   0.8488 358.1187 6607529 173.4743   5.0340  2.15886346 75502","2006-023B","29237","25288.227","667.017","35619.362","2200.822"
"GENERATED VIA SPACETRACK.ORG API","JSPOC","38253","CZ-3B R/B","ROCKET BODY","U","12018D","2016-01-13 15:47:56","11488","7.62568983","0.3998167","54.9834","73.147","84.4","318.7798","0","999","7844","0.00090849","0.00251683","4.7085","1979916","0 CZ-3B R/B","1 38253U 12018D   16013.65828717  .00251683  47085-6  90849-3 0  9996","2 38253  54.9834  73.1470 3998167  84.4000 318.7798  7.62568983 78447","2012-018D","38253","10903.077","188.835","8884.174","165.709"
"GENERATED VIA SPACETRACK.ORG API","JSPOC","25160","CELESTIS 02/TAURUS R/B","ROCKET BODY","U","98007D","2016-01-13 15:47:56","652576","14.21409096","0.0062554","107.9496","228.0732","174.7446","226.8611","0","999","92936","4.4357e-05","-3e-07","0","1980270","0 CELESTIS 02/TAURUS R/B","1 25160U 98007D   16013.65829459 -.00000030 +00000-0 +44357-4 0  9998","2 25160 107.9496 228.0732 0062554 174.7446 226.8611 14.21409096929362","1998-007D","25160","7198.728","101.307","865.624","775.562"
"GENERATED VIA SPACETRACK.ORG API","JSPOC","12457","SL-3 R/B","ROCKET BODY","U","81043B","2016-01-13 15:48:25","813440","14.07179664","0.0062651","81.2749","260.7532","205.8992","153.9039","0","999","77947","4.8262e-05","9.5e-07","0","1979902","0 SL-3 R/B","1 12457U 81043B   16013.65863210  .00000095  00000-0  48262-4 0  9997","2 12457  81.2749 260.7532 0062651 205.8992 153.9039 14.07179664779471","1981-043B","12457","7247.175","102.332","914.445","823.636"
"GENERATED VIA SPACETRACK.ORG API","JSPOC","25637","DELTA 2 R/B","ROCKET BODY","U","99008D","2016-01-13 15:48:26","762112","14.4637877","0.0144102","96.4492","30.2307","136.5667","0.1118","0","999","89036","4.1006e-05","1.38e-06","0","1979901","0 DELTA 2 R/B","1 25637U 99008D   16013.65864308  .00000138  00000-0  41006-4 0  9997","2 25637  96.4492  30.2307 0144102 136.5667   0.1118 14.46378770890364","1999-008D","25637","7115.637","99.558","840.040","634.964"
"GENERATED VIA SPACETRACK.ORG API","JSPOC","25504","SCD 2","PAYLOAD","U","98060A","2016-01-13 15:48:52","380576","14.43937689","0.0017016","24.9958","109.049","282.5198","225.0303","0","999","90962","4.3009e-05","3.31e-06","0","1979892","0 SCD 2","1 25504U 98060A   16013.65893959  .00000331  00000-0  43009-4 0  9991","2 25504  24.9958 109.0490 0017016 282.5198 225.0303 14.43937689909623","1998-060A","25504","7123.654","99.727","757.641","733.398"
"GENERATED VIA SPACETRACK.ORG API","JSPOC","33500","H-2A R/B","ROCKET BODY","U","09002J","2016-01-13 15:48:57","834144","14.86472014","0.0050742","98.2623","218.8416","15.7348","344.5429","0","999","37731","8.5392e-05","7.1e-06","0","1979932","0 H-2A R/B","1 33500U 09002J   16013.65900271  .00000710  00000-0  85392-4 0  9992","2 33500  98.2623 218.8416 0050742  15.7348 344.5429 14.86472014377318","2009-002J","33500","6987.106","96.873","644.425","573.517"
"GENERATED VIA SPACETRACK.ORG API","JSPOC","21894","INSAT 2R (ARABSAT 1C)","PAYLOAD","U","92010B","2016-01-13 15:48:57","949920","0.98682434","0.003173","10.9741","41.3951","190.0229","181.7581","0","999","8665","0","3.3e-07","0","1980260","0 INSAT 2R (ARABSAT 1C)","1 21894U 92010B   16013.65900405  .00000033  00000-0  00000+0 0  9991","2 21894  10.9741  41.3951 0031730 190.0229 181.7581  0.98682434 86658","1992-010B","21894","42616.254","1459.226","36373.340","36102.897"
"GENERATED VIA SPACETRACK.ORG API","JSPOC","21894","INSAT 2R (ARABSAT 1C)","PAYLOAD","U","92010B","2016-01-13 15:48:57","949920","0.98682434","0.003173","10.9741","41.3951","190.0229","181.7581","0","999","8667","0","3.3e-07","0","1980270","0 INSAT 2R (ARABSAT 1C)","1 21894U 92010B   16013.65900405 +.00000033 +00000-0 +00000-0 0  9992","2 21894 010.9741 041.3951 0031730 190.0229 181.7581 00.98682434086670","1992-010B","21894","42616.254","1459.226","36373.340","36102.897"
"GENERATED VIA SPACETRACK.ORG API","JSPOC","8697","MARISAT 1","PAYLOAD","U","76017A","2016-01-13 15:49:04","448064","0.99205584","0.0008099","13.3224","332.5471","119.8532","118.3018","0","999","14431","0","5.5e-07","0","1979967","0 MARISAT 1","1 08697U 76017A   16013.65907926  .00000055  00000-0  00000+0 0  9995","2 08697  13.3224 332.5471 0008099 119.8532 118.3018  0.99205584144314","1976-017A","8697","42466.300","1451.531","36122.559","36053.772"
"GENERATED VIA SPACETRACK.ORG API","JSPOC","28415","CZ-4B R/B","ROCKET BODY","U","04035C","2016-01-13 15:49:21","85248","15.05341001","0.0054864","97.7872","32.9223","86.2914","274.4583","0","999","62024","0.00013533","1.936e-05","0","1980270","0 CZ-4B R/B","1 28415U 04035C   16013.65927182 +.00001936 +00000-0 +13533-3 0  9990","2 28415 097.7872 032.9223 0054864 086.2914 274.4583 15.05341001620247","2004-035C","28415","6928.596","95.659","588.474","512.448"
